ORBCOMM-X               
1 21576U 91050C   25183.14404962  .00000231  00000+0  81370-4 0  9993
2 21576  98.3428 249.4384 0004596 129.9221 230.2374 14.43271675784494
ORBCOMM FM01            
1 23545U 95017A   25182.96768381  .00003785  00000+0  39865-3 0  9993
2 23545  69.9638  37.2743 0005364 275.8804  84.1739 14.90191442615065
ORBCOMM FM02            
1 23546U 95017B   25183.03590134  .00004501  00000+0  46198-3 0  9996
2 23546  69.9650  56.4479 0006766 278.6009  81.4379 14.91080434614679
ORBCOMM FM08            
1 25112U 97084A   25183.45101008  .00000842  00000+0  27518-3 0  9996
2 25112  45.0147 294.5903 0005998 307.1039  52.9264 14.45845371443753
ORBCOMM FM10            
1 25113U 97084B   25183.01972188  .00000881  00000+0  28749-3 0  9994
2 25113  45.0161 299.0671 0005544 269.5224  90.4992 14.45633135443675
ORBCOMM FM11            
1 25114U 97084C   25183.02683727  .00000909  00000+0  29678-3 0  9997
2 25114  45.0145 299.6925 0006237 273.2427  86.7710 14.45382279443657
ORBCOMM FM12            
1 25115U 97084D   25183.33469068  .00000767  00000+0  25659-3 0  9999
2 25115  45.0153 297.9643 0005404 268.8591  91.1641 14.45403195443702
ORBCOMM FM09            
1 25116U 97084E   25182.67707595  .00000812  00000+0  26995-3 0  9991
2 25116  45.0158 302.0662 0006876 260.9755  99.0318 14.45277342443572
